{
  "type": "FeatureCollection",
  "features": [
    {
      "type": "Feature",
      "properties": {
        "norad_id": 36744,
        "name": "COMS 1",
        "group": "weather",
        "lat": 0.2864141400942924,
        "lon": 81.52965858233269,
        "alt_km": 35791.17344821698,
        "timestamp": "2025-12-08T15:42:49.421338+00:00",
        "meta_object_name": "COMS 1",
        "meta_object_id": "2010-032A",
        "meta_epoch": "2025-12-07T17:45:51.479424",
        "meta_mean_motion": 1.00271292,
        "meta_eccentricity": 0.00011614,
        "meta_inclination": 4.3291,
        "meta_ra_of_asc_node": 78.052,
        "meta_arg_of_pericenter": 192.8793,
        "meta_mean_anomaly": 200.4669,
        "meta_ephemeris_type": 0,
        "meta_classification_type": "U",
        "meta_norad_cat_id": 36744,
        "meta_element_set_no": 999,
        "meta_rev_at_epoch": 4917,
        "meta_bstar": 0,
        "meta_mean_motion_dot": -3.42e-06,
        "meta_mean_motion_ddot": 0,
        "tle_line1": "1 36744U 10032A   25341.74017916 -.00000342  00000+0  00000+0 0  9998",
        "tle_line2": "2 36744   4.3291  78.0520 0001161 192.8793 200.4669  1.00271292 49177"
      },
      "geometry": {
        "type": "Point",
        "coordinates": [
          81.52965858233269,
          0.2864141400942924
        ]
      }
    },
    {
      "type": "Feature",
      "properties": {
        "norad_id": 37214,
        "name": "FENGYUN 3B",
        "group": "weather",
        "lat": 58.08796820712175,
        "lon": -142.66716914235806,
        "alt_km": 843.1924168609739,
        "timestamp": "2025-12-08T15:42:49.421350+00:00",
        "meta_object_name": "FENGYUN 3B",
        "meta_object_id": "2010-059A",
        "meta_epoch": "2025-12-08T06:57:08.213760",
        "meta_mean_motion": 14.14788037,
        "meta_eccentricity": 0.00222034,
        "meta_inclination": 98.9915,
        "meta_ra_of_asc_node": 22.2359,
        "meta_arg_of_pericenter": 10.3816,
        "meta_mean_anomaly": 51.7686,
        "meta_ephemeris_type": 0,
        "meta_classification_type": "U",
        "meta_norad_cat_id": 37214,
        "meta_element_set_no": 999,
        "meta_rev_at_epoch": 78043,
        "meta_bstar": 0.0001248076,
        "meta_mean_motion_dot": 1.96e-06,
        "meta_mean_motion_ddot": 0,
        "tle_line1": "1 37214U 10059A   25342.28967840  .00000196  00000+0  12481-3 0  9996",
        "tle_line2": "2 37214  98.9915  22.2359 0022203  10.3816  51.7686 14.14788037780439"
      },
      "geometry": {
        "type": "Point",
        "coordinates": [
          -142.66716914235806,
          58.08796820712175
        ]
      }
    },
    {
      "type": "Feature",
      "properties": {
        "norad_id": 37849,
        "name": "SUOMI NPP",
        "group": "weather",
        "lat": -70.03224715431506,
        "lon": 74.86969926844601,
        "alt_km": 835.1156417404263,
        "timestamp": "2025-12-08T15:42:49.421361+00:00",
        "meta_object_name": "SUOMI NPP",
        "meta_object_id": "2011-061A",
        "meta_epoch": "2025-12-08T07:45:49.710528",
        "meta_mean_motion": 14.1951233,
        "meta_eccentricity": 0.00020946,
        "meta_inclination": 98.7767,
        "meta_ra_of_asc_node": 279.705,
        "meta_arg_of_pericenter": 128.0181,
        "meta_mean_anomaly": 232.1184,
        "meta_ephemeris_type": 0,
        "meta_classification_type": "U",
        "meta_norad_cat_id": 37849,
        "meta_element_set_no": 999,
        "meta_rev_at_epoch": 73136,
        "meta_bstar": 0.00011947095,
        "meta_mean_motion_dot": 2.08e-06,
        "meta_mean_motion_ddot": 0,
        "tle_line1": "1 37849U 11061A   25342.32349202  .00000208  00000+0  11947-3 0  9995",
        "tle_line2": "2 37849  98.7767 279.7050 0002094 128.0181 232.1184 14.19512330731363"
      },
      "geometry": {
        "type": "Point",
        "coordinates": [
          74.86969926844601,
          -70.03224715431506
        ]
      }
    },
    {
      "type": "Feature",
      "properties": {
        "norad_id": 38552,
        "name": "METEOSAT-10 (MSG-3)",
        "group": "weather",
        "lat": -4.019910828478266,
        "lon": -46.540923580456095,
        "alt_km": 35782.52961933025,
        "timestamp": "2025-12-08T15:42:49.421386+00:00",
        "meta_object_name": "METEOSAT-10 (MSG-3)",
        "meta_object_id": "2012-035B",
        "meta_epoch": "2025-12-08T01:37:13.932768",
        "meta_mean_motion": 1.00273522,
        "meta_eccentricity": 8.845e-05,
        "meta_inclination": 4.2178,
        "meta_ra_of_asc_node": 61.7316,
        "meta_arg_of_pericenter": 234.9391,
        "meta_mean_anomaly": 164.8501,
        "meta_ephemeris_type": 0,
        "meta_classification_type": "U",
        "meta_norad_cat_id": 38552,
        "meta_element_set_no": 999,
        "meta_rev_at_epoch": 4894,
        "meta_bstar": 0,
        "meta_mean_motion_dot": -4e-08,
        "meta_mean_motion_ddot": 0,
        "tle_line1": "1 38552U 12035B   25342.06752237 -.00000004  00000+0  00000+0 0  9995",
        "tle_line2": "2 38552   4.2178  61.7316 0000884 234.9391 164.8501  1.00273522 48944"
      },
      "geometry": {
        "type": "Point",
        "coordinates": [
          -46.540923580456095,
          -4.019910828478266
        ]
      }
    },
    {
      "type": "Feature",
      "properties": {
        "norad_id": 38771,
        "name": "METOP-B",
        "group": "weather",
        "lat": 73.84895676126357,
        "lon": 0.844475436281627,
        "alt_km": 813.0566883364081,
        "timestamp": "2025-12-08T15:42:49.421401+00:00",
        "meta_object_name": "METOP-B",
        "meta_object_id": "2012-049A",
        "meta_epoch": "2025-12-08T06:54:31.546368",
        "meta_mean_motion": 14.21406045,
        "meta_eccentricity": 0.00027281,
        "meta_inclination": 98.6805,
        "meta_ra_of_asc_node": 32.322,
        "meta_arg_of_pericenter": 153.9624,
        "meta_mean_anomaly": 206.1691,
        "meta_ephemeris_type": 0,
        "meta_classification_type": "U",
        "meta_norad_cat_id": 38771,
        "meta_element_set_no": 999,
        "meta_rev_at_epoch": 68614,
        "meta_bstar": 0.0001519826,
        "meta_mean_motion_dot": 2.88e-06,
        "meta_mean_motion_ddot": 0,
        "tle_line1": "1 38771U 12049A   25342.28786512  .00000288  00000+0  15198-3 0  9991",
        "tle_line2": "2 38771  98.6805  32.3220 0002728 153.9624 206.1691 14.21406045686142"
      },
      "geometry": {
        "type": "Point",
        "coordinates": [
          0.844475436281627,
          73.84895676126357
        ]
      }
    },
    {
      "type": "Feature",
      "properties": {
        "norad_id": 39216,
        "name": "INSAT-3D",
        "group": "weather",
        "lat": -0.03095735520189924,
        "lon": 82.90096849196661,
        "alt_km": 35793.08505034672,
        "timestamp": "2025-12-08T15:42:49.421414+00:00",
        "meta_object_name": "INSAT-3D",
        "meta_object_id": "2013-038B",
        "meta_epoch": "2025-12-08T07:22:20.554176",
        "meta_mean_motion": 1.00271656,
        "meta_eccentricity": 0.00017005,
        "meta_inclination": 1.4333,
        "meta_ra_of_asc_node": 85.0358,
        "meta_arg_of_pericenter": 161.501,
        "meta_mean_anomaly": 70.9097,
        "meta_ephemeris_type": 0,
        "meta_classification_type": "U",
        "meta_norad_cat_id": 39216,
        "meta_element_set_no": 999,
        "meta_rev_at_epoch": 4516,
        "meta_bstar": 0,
        "meta_mean_motion_dot": -3.37e-06,
        "meta_mean_motion_ddot": 0,
        "tle_line1": "1 39216U 13038B   25342.30718234 -.00000337  00000+0  00000+0 0  9992",
        "tle_line2": "2 39216   1.4333  85.0358 0001700 161.5010  70.9097  1.00271656 45164"
      },
      "geometry": {
        "type": "Point",
        "coordinates": [
          82.90096849196661,
          -0.03095735520189924
        ]
      }
    },
    {
      "type": "Feature",
      "properties": {
        "norad_id": 39260,
        "name": "FENGYUN 3C",
        "group": "weather",
        "lat": 46.55244761562459,
        "lon": -48.5238359256015,
        "alt_km": 845.4044004895277,
        "timestamp": "2025-12-08T15:42:49.421425+00:00",
        "meta_object_name": "FENGYUN 3C",
        "meta_object_id": "2013-052A",
        "meta_epoch": "2025-12-08T05:18:48.099456",
        "meta_mean_motion": 14.15694244,
        "meta_eccentricity": 0.00140352,
        "meta_inclination": 98.476,
        "meta_ra_of_asc_node": 320.1215,
        "meta_arg_of_pericenter": 209.4658,
        "meta_mean_anomaly": 150.5727,
        "meta_ephemeris_type": 0,
        "meta_classification_type": "U",
        "meta_norad_cat_id": 39260,
        "meta_element_set_no": 999,
        "meta_rev_at_epoch": 63154,
        "meta_bstar": 0.00013382439,
        "meta_mean_motion_dot": 2.21e-06,
        "meta_mean_motion_ddot": 0,
        "tle_line1": "1 39260U 13052A   25342.22139004  .00000221  00000+0  13382-3 0  9992",
        "tle_line2": "2 39260  98.4760 320.1215 0014035 209.4658 150.5727 14.15694244631543"
      },
      "geometry": {
        "type": "Point",
        "coordinates": [
          -48.5238359256015,
          46.55244761562459
        ]
      }
    }
  ]
}